[{"OBJECT_NAME":"STARLINK-2606","OBJECT_ID":"2021-038AK","EPOCH":"2026-03-10T00:00:02.999808","MEAN_MOTION":15.29362682,"ECCENTRICITY":0.00014669,"INCLINATION":53.1559,"RA_OF_ASC_NODE":344.0267,"ARG_OF_PERICENTER":110.8471,"MEAN_ANOMALY":17.0834,"EPHEMERIS_TYPE":0,"CLASSIFICATION_TYPE":"U","NORAD_CAT_ID":48386,"ELEMENT_SET_NO":999,"REV_AT_EPOCH":579,"BSTAR":-0.00019575793,"MEAN_MOTION_DOT":-6.001e-5,"MEAN_MOTION_DDOT":0},{"OBJECT_NAME":"TEVEL2-6","OBJECT_ID":"2025-052F","EPOCH":"2026-03-09T15:35:24.554400","MEAN_MOTION":15.30760889,"ECCENTRICITY":0.0004769,"INCLINATION":97.4016,"RA_OF_ASC_NODE":325.0381,"ARG_OF_PERICENTER":95.6604,"MEAN_ANOMALY":264.5181,"EPHEMERIS_TYPE":0,"CLASSIFICATION_TYPE":"U","NORAD_CAT_ID":63215,"ELEMENT_SET_NO":999,"REV_AT_EPOCH":5486,"BSTAR":0.00070909,"MEAN_MOTION_DOT":0.00021046,"MEAN_MOTION_DDOT":0}]
